CCSDS_OMM_VERS = 2.0
CREATION_DATE  = 
ORIGINATOR     = 

OBJECT_NAME    = SILVERSAT
OBJECT_ID      = 1998-067XV
CENTER_NAME    = EARTH
REF_FRAME      = TEME
TIME_SYSTEM    = UTC
MEAN_ELEMENT_THEORY = SGP/SGP4

EPOCH          = 2026-02-01T00:27:35.011872
MEAN_MOTION    = 15.61117018
ECCENTRICITY   = .0003253
INCLINATION    = 51.6268
RA_OF_ASC_NODE = 251.0392
ARG_OF_PERICENTER = 174.4094
MEAN_ANOMALY   = 185.6936

EPHEMERIS_TYPE = 0
CLASSIFICATION_TYPE = U
NORAD_CAT_ID   = 66909
ELEMENT_SET_NO = 999
REV_AT_EPOCH   = 944
BSTAR          = .1076E-2
MEAN_MOTION_DOT = .93146E-3
MEAN_MOTION_DDOT = 0

CCSDS_OMM_VERS = 2.0
CREATION_DATE  = 
ORIGINATOR     = 

OBJECT_NAME    = 1998-067XW
OBJECT_ID      = 1998-067XW
CENTER_NAME    = EARTH
REF_FRAME      = TEME
TIME_SYSTEM    = UTC
MEAN_ELEMENT_THEORY = SGP/SGP4

EPOCH          = 2026-02-01T00:40:55.264224
MEAN_MOTION    = 15.60043760
ECCENTRICITY   = .0001469
INCLINATION    = 51.6260
RA_OF_ASC_NODE = 251.0970
ARG_OF_PERICENTER = 162.5636
MEAN_ANOMALY   = 197.5408

EPHEMERIS_TYPE = 0
CLASSIFICATION_TYPE = U
NORAD_CAT_ID   = 66910
ELEMENT_SET_NO = 999
REV_AT_EPOCH   = 944
BSTAR          = .90575E-3
MEAN_MOTION_DOT = .74968E-3
MEAN_MOTION_DDOT = 0

CCSDS_OMM_VERS = 2.0
CREATION_DATE  = 
ORIGINATOR     = 

OBJECT_NAME    = 1998-067XX
OBJECT_ID      = 1998-067XX
CENTER_NAME    = EARTH
REF_FRAME      = TEME
TIME_SYSTEM    = UTC
MEAN_ELEMENT_THEORY = SGP/SGP4

EPOCH          = 2026-02-01T07:33:11.857248
MEAN_MOTION    = 15.62232494
ECCENTRICITY   = .0002351
INCLINATION    = 51.6250
RA_OF_ASC_NODE = 249.2578
ARG_OF_PERICENTER = 195.3022
MEAN_ANOMALY   = 164.7901

EPHEMERIS_TYPE = 0
CLASSIFICATION_TYPE = U
NORAD_CAT_ID   = 66911
ELEMENT_SET_NO = 999
REV_AT_EPOCH   = 948
BSTAR          = .98518E-3
MEAN_MOTION_DOT = .88961E-3
MEAN_MOTION_DDOT = 0

CCSDS_OMM_VERS = 2.0
CREATION_DATE  = 
ORIGINATOR     = 

OBJECT_NAME    = 1998-067XY
OBJECT_ID      = 1998-067XY
CENTER_NAME    = EARTH
REF_FRAME      = TEME
TIME_SYSTEM    = UTC
MEAN_ELEMENT_THEORY = SGP/SGP4

EPOCH          = 2026-02-01T00:19:56.373024
MEAN_MOTION    = 15.57565057
ECCENTRICITY   = .000221
INCLINATION    = 51.6283
RA_OF_ASC_NODE = 251.7544
ARG_OF_PERICENTER = 131.5658
MEAN_ANOMALY   = 228.5524

EPHEMERIS_TYPE = 0
CLASSIFICATION_TYPE = U
NORAD_CAT_ID   = 66912
ELEMENT_SET_NO = 999
REV_AT_EPOCH   = 942
BSTAR          = .76397E-3
MEAN_MOTION_DOT = .57342E-3
MEAN_MOTION_DDOT = 0

