SILVERSAT               
1 66909U 98067XV  26032.01915523  .00093146  00000+0  10760-2 0  9997
2 66909  51.6268 251.0392 0003253 174.4094 185.6936 15.61117018  9440
1998-067XW              
1 66910U 98067XW  26032.02841741  .00074968  00000+0  90575-3 0  9994
2 66910  51.6260 251.0970 0001469 162.5636 197.5408 15.60043760  9440
1998-067XX              
1 66911U 98067XX  26032.31472057  .00088961  00000+0  98518-3 0  9990
2 66911  51.6250 249.2578 0002351 195.3022 164.7901 15.62232494  9481
1998-067XY              
1 66912U 98067XY  26032.01384691  .00057342  00000+0  76397-3 0  9994
2 66912  51.6283 251.7544 0002210 131.5658 228.5524 15.57565057  9422
